STARLINK-2326           
1 47870U 21021L   26160.45803177  .00003528  00000+0  12541-3 0  9995
2 47870  53.1585 214.0948 0001212  83.7058 276.4081 15.31694421290027
STARLINK-2329           
1 47873U 21021P   26160.36336073  .00003733  00000+0  13200-3 0  9995
2 47873  53.1584 188.9781 0001333  84.4209 275.6945 15.31698789290462
STARLINK-2330           
1 47874U 21021Q   26160.70068297  .00091144  00000+0  24581-2 0  9990
2 47874  53.1431 147.4568 0004731  38.2495 321.8844 15.37048580291070
STARLINK-2336           
1 47879U 21021V   26160.38801860  .00074855  00000+0  11859-2 0  9994
2 47879  53.1541 204.0577 0005085 344.4763  15.6090 15.52756005290435
STARLINK-2342           
1 47883U 21021Z   26160.91668981  .00638101  00000+0  33124-2 0  9992
2 47883  53.1548 184.4714 0001791  87.4973 357.6005 15.78715204  5947
STARLINK-2343           
1 47884U 21021AA  26160.65844024 -.00000925  00000+0 -18040-4 0  9999
2 47884  53.1581 213.1996 0001088  95.0428 265.0697 15.31705593290142
STARLINK-2346           
1 47887U 21021AD  26160.41141357  .00002303  00000+0  85972-4 0  9993
2 47887  53.1583 214.3072 0001291  80.6998 279.4149 15.31698026290113
STARLINK-2354           
1 47894U 21021AL  26160.37354792  .00045506  00000+0  13852-2 0  9993
2 47894  53.1517 201.4348 0001466  45.3673 314.7448 15.33579726290238
STARLINK-2355           
1 47895U 21021AM  26160.39904493  .00003005  00000+0  10854-3 0  9993
2 47895  53.1574 201.5451 0001146  89.6951 270.4182 15.31701025290277
STARLINK-2356           
1 47896U 21021AN  26160.43471570  .00000411  00000+0  24997-4 0  9996
2 47896  53.1584 214.1862 0001290  90.9286 269.1863 15.31704275290070
STARLINK-2358           
1 47898U 21021AQ  26160.38504671  .00004987  00000+0  17242-3 0  9997
2 47898  53.1572 201.5392 0001532 106.4192 253.6978 15.31691614290241
STARLINK-2361           
1 47901U 21021AT  26160.77558933  .00049215  00000+0  12873-2 0  9992
2 47901  53.1547 185.2103 0005012   1.9324 358.1699 15.38275325290558
STARLINK-2363           
1 47903U 21021AV  26160.91668981  .00341415  54680-4  10700-2 0  9997
2 47903  53.1502 154.3498 0001632 109.1002 173.7769 15.90969776  5756
STARLINK-2364           
1 47904U 21021AW  26160.35401817  .00002791  00000+0  10169-3 0  9992
2 47904  53.1580 188.8559 0001341 100.4667 259.6485 15.31695301290458
STARLINK-2367           
1 47907U 21021AZ  26160.42075655  .00003361  00000+0  12003-3 0  9993
2 47907  53.1587 214.4023 0001253  81.3889 278.7255 15.31700227290074
STARLINK-2370           
1 47910U 21021BC  26160.37572418  .00000784  00000+0  37032-4 0  9996
2 47910  53.1593 201.6185 0001523  96.1680 263.9495 15.31701174290305
STARLINK-2371           
1 47911U 21021BD  26160.41607438 -.00004984  00000+0 -14898-3 0  9995
2 47911  53.1584 214.2951 0001123  75.8349 284.2777 15.31691399289965
STARLINK-2378           
1 47916U 21021BJ  26160.35870813  .00007138  00000+0  24137-3 0  9991
2 47916  53.1582 188.9986 0001293  87.4135 272.7015 15.31724666290450
STARLINK-2405           
1 47919U 21021BM  26160.45336335 -.00000504  00000+0 -44769-5 0  9998
2 47919  53.1584 214.0944 0001326  71.8734 288.2412 15.31710614290102
STARLINK-1647           
1 47978U 21024B   26160.58281523 -.00001134  00000+0 -24774-4 0  9991
2 47978  53.1607 264.9160 0001046  74.3723 285.7394 15.31709700288700
STARLINK-2303           
1 47981U 21024E   26160.57783433  .00009935  00000+0  33147-3 0  9999
2 47981  53.1584 265.0044 0001178  90.2930 269.8206 15.31702212288700
STARLINK-2273           
1 47993U 21024S   26160.48588778  .00053826  00000+0  99391-3 0  9998
2 47993  53.1510 222.2935 0005431 341.4364  18.6446 15.48576674289283
STARLINK-2266           
1 47997U 21024W   26160.45950416 -.00000493  00000+0 -41044-5 0  9999
2 47997  53.1599 239.8711 0001257  88.4697 271.6449 15.31702601289040
STARLINK-2270           
1 48000U 21024Z   26160.75732467  .00063852  00000+0  14738-2 0  9995
2 48000  53.1273 170.2691 0005891  13.8804 346.2362 15.41956648289989
STARLINK-2153           
1 48009U 21024AJ  26160.51179925  .00002915  00000+0  10562-3 0  9997
2 48009  53.1607 242.2711 0001311  90.1953 269.9199 15.31712020288967
STARLINK-2226           
1 48010U 21024AK  26160.58751570 -.00000641  00000+0 -88870-5 0  9993
2 48010  53.1589 265.1824 0000937  80.8852 279.2256 15.31702374288648
STARLINK-2285           
1 48019U 21024AU  26160.53873157  .00007256  00000+0  24508-3 0  9996
2 48019  53.1597 239.6068 0001107  85.8546 274.2582 15.31736894288996
STARLINK-2298           
1 48022U 21024AX  26160.53875336  .00071221  00000+0  11977-2 0  9999
2 48022  53.1230 256.8017 0004623 320.6233  39.4440 15.51111688288802
STARLINK-2292           
1 48023U 21024AY  26160.57797438  .00061310  00000+0  13650-2 0  9998
2 48023  53.1196 260.3992 0004198 318.5122  41.5564 15.43059157288754
STARLINK-2299           
1 48029U 21024BE  26160.91668981  .00254941  00000+0  32048-2 0  9998
2 48029  53.1156 254.1112 0001458  77.0695 311.8962 15.58310885  5777
