OBJECT_NAME,OBJECT_ID,EPOCH,MEAN_MOTION,ECCENTRICITY,INCLINATION,RA_OF_ASC_NODE,ARG_OF_PERICENTER,MEAN_ANOMALY,EPHEMERIS_TYPE,CLASSIFICATION_TYPE,NORAD_CAT_ID,ELEMENT_SET_NO,REV_AT_EPOCH,BSTAR,MEAN_MOTION_DOT,MEAN_MOTION_DDOT
STARLINK-2326,2021-021L,2026-06-09T10:59:33.944928,15.31694421,.00012127,53.1585,214.0948,83.7058,276.4081,0,U,47870,999,29002,.12541008E-3,.3528E-4,0
STARLINK-2329,2021-021P,2026-06-09T08:43:14.367072,15.31698789,.00013334,53.1584,188.9781,84.4209,275.6945,0,U,47873,999,29046,.131997E-3,.3733E-4,0
STARLINK-2330,2021-021Q,2026-06-09T16:48:59.008608,15.37048580,.00047319,53.1431,147.4568,38.2495,321.8844,0,U,47874,999,29107,.24581287E-2,.91144E-3,0
STARLINK-2336,2021-021V,2026-06-09T09:18:44.807040,15.52756005,.00050852,53.1541,204.0577,344.4763,15.6090,0,U,47879,999,29043,.11859208E-2,.74855E-3,0
STARLINK-2342,2021-021Z,2026-06-09T22:00:01.999584,15.78715204,.00017913,53.1548,184.4714,87.4973,357.6005,0,U,47883,999,594,.33124024E-2,.638101E-2,0
STARLINK-2343,2021-021AA,2026-06-09T15:48:09.236736,15.31705593,.00010886,53.1581,213.1996,95.0428,265.0697,0,U,47884,999,29014,-.1804002E-4,-.925E-5,0
STARLINK-2346,2021-021AD,2026-06-09T09:52:26.132448,15.31698026,.0001291,53.1583,214.3072,80.6998,279.4149,0,U,47887,999,29011,.85971916E-4,.2303E-4,0
STARLINK-2354,2021-021AL,2026-06-09T08:57:54.540288,15.33579726,.00014667,53.1517,201.4348,45.3673,314.7448,0,U,47894,999,29023,.1385239E-2,.45506E-3,0
STARLINK-2355,2021-021AM,2026-06-09T09:34:37.481952,15.31701025,.00011461,53.1574,201.5451,89.6951,270.4182,0,U,47895,999,29027,.10854006E-3,.3005E-4,0
STARLINK-2356,2021-021AN,2026-06-09T10:25:59.436480,15.31704275,.00012907,53.1584,214.1862,90.9286,269.1863,0,U,47896,999,29007,.24996787E-4,.411E-5,0
STARLINK-2358,2021-021AQ,2026-06-09T09:14:28.035744,15.31691614,.00015324,53.1572,201.5392,106.4192,253.6978,0,U,47898,999,29024,.17242018E-3,.4987E-4,0
STARLINK-2361,2021-021AT,2026-06-09T18:36:50.918112,15.38275325,.00050129,53.1547,185.2103,1.9324,358.1699,0,U,47901,999,29055,.12873221E-2,.49215E-3,0
STARLINK-2363,2021-021AV,2026-06-09T22:00:01.999584,15.90969776,.00016327,53.1502,154.3498,109.1002,173.7769,0,U,47903,999,575,.10699793E-2,.341415E-2,.54680361E-4
STARLINK-2364,2021-021AW,2026-06-09T08:29:47.169888,15.31695301,.0001341,53.1580,188.8559,100.4667,259.6485,0,U,47904,999,29045,.10168775E-3,.2791E-4,0
STARLINK-2367,2021-021AZ,2026-06-09T10:05:53.365920,15.31700227,.00012534,53.1587,214.4023,81.3889,278.7255,0,U,47907,999,29007,.12002566E-3,.3361E-4,0
STARLINK-2370,2021-021BC,2026-06-09T09:01:02.569152,15.31701174,.00015234,53.1593,201.6185,96.1680,263.9495,0,U,47910,999,29030,.37031588E-4,.784E-5,0
STARLINK-2371,2021-021BD,2026-06-09T09:59:08.826432,15.31691399,.00011236,53.1584,214.2951,75.8349,284.2777,0,U,47911,999,28996,-.14897659E-3,-.4984E-4,0
STARLINK-2378,2021-021BJ,2026-06-09T08:36:32.382432,15.31724666,.00012938,53.1582,188.9986,87.4135,272.7015,0,U,47916,999,29045,.24136908E-3,.7138E-4,0
STARLINK-2405,2021-021BM,2026-06-09T10:52:50.593440,15.31710614,.00013262,53.1584,214.0944,71.8734,288.2412,0,U,47919,999,29010,-.4476939E-5,-.504E-5,0
STARLINK-1647,2021-024B,2026-06-09T13:59:15.235872,15.31709700,.00010464,53.1607,264.9160,74.3723,285.7394,0,U,47978,999,28870,-.24774182E-4,-.1134E-4,0
STARLINK-2303,2021-024E,2026-06-09T13:52:04.886112,15.31702212,.00011784,53.1584,265.0044,90.2930,269.8206,0,U,47981,999,28870,.33147261E-3,.9935E-4,0
STARLINK-2273,2021-024S,2026-06-09T11:39:40.704192,15.48576674,.00054311,53.1510,222.2935,341.4364,18.6446,0,U,47993,999,28928,.99391115E-3,.53826E-3,0
STARLINK-2266,2021-024W,2026-06-09T11:01:41.159424,15.31702601,.00012574,53.1599,239.8711,88.4697,271.6449,0,U,47997,999,28904,-.4104382E-5,-.493E-5,0
STARLINK-2270,2021-024Z,2026-06-09T18:10:32.851488,15.41956648,.00058914,53.1273,170.2691,13.8804,346.2362,0,U,48000,999,28998,.14737818E-2,.63852E-3,0
STARLINK-2153,2021-024AJ,2026-06-09T12:16:59.455200,15.31712020,.00013112,53.1607,242.2711,90.1953,269.9199,0,U,48009,999,28896,.1056169E-3,.2915E-4,0
STARLINK-2226,2021-024AK,2026-06-09T14:06:01.356480,15.31702374,.00009377,53.1589,265.1824,80.8852,279.2256,0,U,48010,999,28864,-.8886993E-5,-.641E-5,0
STARLINK-2285,2021-024AU,2026-06-09T12:55:46.407648,15.31736894,.00011074,53.1597,239.6068,85.8546,274.2582,0,U,48019,999,28899,.24507856E-3,.7256E-4,0
STARLINK-2298,2021-024AX,2026-06-09T12:55:48.290304,15.51111688,.00046234,53.1230,256.8017,320.6233,39.4440,0,U,48022,999,28880,.11977472E-2,.71221E-3,0
STARLINK-2292,2021-024AY,2026-06-09T13:52:16.986432,15.43059157,.00041989,53.1196,260.3992,318.5122,41.5564,0,U,48023,999,28875,.13650395E-2,.6131E-3,0
STARLINK-2299,2021-024BE,2026-06-09T22:00:01.999584,15.58310885,.0001458,53.1156,254.1112,77.0695,311.8962,0,U,48029,999,577,.32047885E-2,.254941E-2,0
